0 SL-8 DEB *
1 18510U 82051F   13282.75177953  .00000809  00000-0  22617-3 0  8897
2 18510 073.9929 122.7762 0014635 226.7538 258.3160 14.47743273416890
0 SL-8 DEB *
1 18510U 82051F   13286.00523999  .00000973  00000-0  27038-3 0  8911
2 18510 073.9928 116.6732 0014510 220.1425 294.7100 14.47749331417365
0 SL-8 DEB *
1 18510U 82051F   13287.50129759  .00001091  00000-0  30232-3 0  8926
2 18510 073.9929 113.8666 0014456 217.1009 171.8927 14.47752575417584
0 SL-8 DEB *
1 18510U 82051F   13288.62382189  .00001389  00000-0  38279-3 0  8938
2 18510 073.9931 111.7609 0014404 214.8808 262.2433 14.47756394417743
0 SL-8 DEB *
1 18510U 82051F   13289.66203793  .00001332  00000-0  36748-3 0  8944
2 18510 073.9932 109.8132 0014333 212.8070 273.2265 14.47760366417898
0 SL-8 DEB *
1 18510U 82051F   13290.69822778  .00001418  00000-0  39073-3 0  8959
2 18510 073.9934 107.8692 0014289 210.6998 273.7039 14.47763213418040
0 SL-8 DEB *
1 18510U 82051F   13291.94214985  .00001513  00000-0  41637-3 0  8969
2 18510 073.9935 105.5355 0014285 208.2772 276.7623 14.47765354418221
0 SL-8 DEB *
1 18510U 82051F   13293.66970855  .00001751  00000-0  48061-3 0  8978
2 18510 073.9937 102.2946 0014181 204.7321 280.6338 14.47770341418475
0 SL-8 DEB *
1 18510U 82051F   13294.83318524  .00001854  00000-0  50818-3 0  8985
2 18510 073.9938 100.1120 0014133 202.4488 224.4746 14.47775046418648
0 SL-8 DEB *
1 18510U 82051F   13296.15593986  .00001856  00000-0  50874-3 0  8994
2 18510 073.9939 097.6306 0014063 199.7287 278.5875 14.47779834418835
